CELESTIS-17 & SHERPA-FX1
1 47486U 21006CB  26068.64311433  .00007207  00000+0  24301-3 0  9993
2 47486  97.2397 112.1052 0006630 178.1385 181.9882 15.30994801284065
STARLINK-32872          
1 63019U 25032Q   26068.08694343  .00036976  00000+0  13464-2 0  9990
2 63019  43.0033 339.8177 0001852 257.3444 102.7200 15.27581564 60526
